ORBCOMM FM05 [-]        
1 25117U 97084F   23266.04567765  .00002181  00000+0  71034-3 0  9992
2 25117  45.0149 156.2181 0002915 304.0509  56.0064 14.41403164349121
ORBCOMM FM03 [-]        
1 25158U 98007B   23266.57705777  .00001535  00000+0  62040-3 0  9997
2 25158 107.9830 279.2754 0049835 272.2723  87.2709 14.31268448333431
ORBCOMM FM04 [+]        
1 25159U 98007C   23266.53773155  .00001487  00000+0  60105-3 0  9995
2 25159 107.9812 281.9781 0045318 270.4061  89.1884 14.31543852333596
ORBCOMM FM17 [-]        
1 25413U 98046A   23266.38291681  .00001458  00000+0  58655-3 0  9998
2 25413  44.9968 357.0816 0003255 257.3969 102.6513 14.32328195312364
ORBCOMM FM18 [-]        
1 25414U 98046B   23266.03232313  .00001896  00000+0  71137-3 0  9994
2 25414  44.9945 290.4692 0005394 314.2781  45.7623 14.34803036313200
